ONEWEB-0116             
1 48046U 21025E   25243.19470586  .00000114  00000+0  27662-3 0  9999
2 48046  87.9016  17.8109 0001792  92.9252 267.2083 13.13470801215586
ONEWEB-0150             
1 48047U 21025F   25243.09481472 -.00000210  00000+0 -60872-3 0  9994
2 48047  87.9018  17.8254 0001935 101.4779 258.6568 13.13470059215463
ONEWEB-0107             
1 48048U 21025G   25243.09650850 -.00000313  00000+0 -89139-3 0  9994
2 48048  87.9014  17.8236 0001645 107.7753 252.3555 13.13469559215447
ONEWEB-0101             
1 48049U 21025H   25243.13546202  .00005917  00000+0  16165-1 0  9995
2 48049  87.9012  17.8551 0001818 107.3251 252.8077 13.13442769215423
ONEWEB-0113             
1 48050U 21025J   25243.11584388  .00000042  00000+0  78162-4 0  9994
2 48050  87.9014  17.8018 0001861  93.1101 267.0242 13.13976737215518
ONEWEB-0112             
1 48051U 21025K   25243.10159721 -.00000288  00000+0 -82380-3 0  9993
2 48051  87.9016  17.8192 0001854  99.8845 260.2493 13.13470653215513
ONEWEB-0156             
1 48052U 21025L   25242.88152385 -.00000057  00000+0 -18968-3 0  9992
2 48052  87.9014  17.8750 0001774 102.7449 257.3879 13.13469640215460
ONEWEB-0161             
1 48053U 21025M   25242.93230481 -.00000168  00000+0 -49611-3 0  9995
2 48053  87.9018  17.8839 0001713 103.0846 257.0474 13.13469139215406
